[{"OBJECT_NAME":"STARLINK-32704","OBJECT_ID":"2025-018W","EPOCH":"2026-03-09T22:04:08.205888","MEAN_MOTION":15.30208948,"ECCENTRICITY":9.442e-5,"INCLINATION":53.1628,"RA_OF_ASC_NODE":308.5448,"ARG_OF_PERICENTER":81.3332,"MEAN_ANOMALY":278.7775,"EPHEMERIS_TYPE":0,"CLASSIFICATION_TYPE":"U","NORAD_CAT_ID":62826,"ELEMENT_SET_NO":999,"REV_AT_EPOCH":6320,"BSTAR":0.00075649015,"MEAN_MOTION_DOT":0.00022119,"MEAN_MOTION_DDOT":0},{"OBJECT_NAME":"CZ-2C DEB","OBJECT_ID":"2018-056F","EPOCH":"2026-03-09T10:57:26.102304","MEAN_MOTION":15.27739248,"ECCENTRICITY":0.00119172,"INCLINATION":98.1188,"RA_OF_ASC_NODE":250.032,"ARG_OF_PERICENTER":4.6998,"MEAN_ANOMALY":355.4349,"EPHEMERIS_TYPE":0,"CLASSIFICATION_TYPE":"U","NORAD_CAT_ID":43534,"ELEMENT_SET_NO":999,"REV_AT_EPOCH":41855,"BSTAR":0.00085537155,"MEAN_MOTION_DOT":0.00023193,"MEAN_MOTION_DDOT":0}]
